name,lng,lat,address
蜀大侠火锅(春熙店),104.082545,30.659978,四川省成都市锦江区上东大街6号春南商场2层
锦城印象(高新店),104.077742,30.59635,成都市武侯区天顺路88号
小龙坎火锅(春熙太古里店),104.08683,30.65694,四川省成都市锦江区下东大街36号郁金香广场2楼
园里火锅(天府三街店),104.072436,30.553815,四川省成都市武侯区天府三街大源国际中心B1栋3层
巴蜀大宅门火锅(川音店),104.090759,30.645285,四川省成都市武侯区老马路14号
川西坝子(金沙直营店),104.018635,30.692606,四川省成都市金牛区黄苑街6号
蜀九香火锅酒楼(新会展Art店),104.079669,30.565893,四川省成都市武侯区天府大道中段世纪城路166号西蜀廊桥3栋
小龙坎火锅(全球旗舰店),104.085306,30.657741,成都市锦江区东大街下东大街段118号蓝光时代华章2层
巴蜀大宅门火锅(清江东路店),104.042941,30.67425,四川省成都市青羊区清江东路36~38号
老码头火锅(玉林店),104.064808,30.632888,四川省成都市武侯区玉林中路27号
玛歌庄园火锅(五龙山店),104.17474,30.768163,四川省成都市新都区叠秀路1676号
巴蜀大宅门火锅(北大街店),104.084095,30.679599,四川省成都市青羊区北大街91号
飘香火锅(玉林西路店),104.062309,30.635455,四川省成都市武侯区玉林西路34号
爸爸炒料牛排老火锅(长庆店),104.04578,30.708219,四川省成都市金牛区长庆东一路1长庆东路1号附2号
小龙坎火锅(马鞍店),104.093756,30.682799,四川省成都市金牛区马鞍北路27号
三只耳火锅(倪家桥店),104.06719,30.630823,四川省成都市武侯区倪家桥路10号附1号
巴蜀大宅门火锅(新华公园店),104.112858,30.664714,四川省成都市成华区新鸿南路75号
园里火锅(府城大道店),104.057892,30.594047,四川省成都市武侯区府城大道西段505号仁和新城购物中心F3
蜀大侠火锅(总府路店),104.085258,30.664128,四川省成都市锦江区商业场街1号2层
袁老四老火锅(东大街店),104.086563,30.65722,四川省成都市锦江区东大街下东大街段36一层125~127号
泥巴小院市井火锅(锦华店),104.105375,30.625517,四川省成都市锦江区东光街道锦华路一段163号附一号奔驰4s店旁
蜀九香火锅酒楼(玉林店),104.064971,30.631109,四川省成都市武侯区倪家桥路11-2号
川西坝子(华阳直营店),104.070358,30.521294,四川省成都市双流区正北下街21号
川江滋香老火锅(观景店),103.640087,30.993287,四川省成都市都江堰市观景路15号
月满大江火锅(科华店),104.08323,30.621492,四川省成都市武侯区科华北路君悦尚都一楼
龙腾庭院火锅(恒大新城店),103.873466,30.670261,四川省成都市温江区东坡路西五段兴元腾达汽修厂西100米
鸿社重庆老火锅(菽香里一巷店),104.111004,30.669957,菽香里一巷34号
四川麻辣空间餐饮管理有限公司(武侯祠店),104.062291,30.654018,四川省成都市武侯区通祠路一江城花2楼
味道攻略鲜货火锅(双流乐福店),103.93163,30.589203,四川省成都市双流区航鹰东路6号乐福城市生活广场原润驰国际广场润驰国际广场1层
海底捞(阳光新业店),104.097606,30.648812,成都市锦江区一环路东五段87号阳光新业中心F6
锦城印象火锅(彩虹桥店),104.062819,30.653531,四川省成都市武侯区武侯祠大街19号
皇城老妈火锅(皇城店),104.058651,30.627892,四川省成都市武侯区二环路南三段玉林生活广场20号
川西坝子火锅(杜甫草堂直营店),104.032717,30.668411,四川省成都市青羊区青华路43号
重庆邓毛肚火锅(双楠店),104.033426,30.653322,四川省成都市武侯区双楠街208号
万杰老灶火锅(光荣店),104.057254,30.694102,四川省成都市金牛区光荣北路86号
锦城印象(天府三街店),104.066416,30.553249,四川省成都市高新区天府三街288号
谭鸭血鸭血火锅先行者(太古里店),104.087065,30.656733,四川省成都市锦江区东大街下东大街段166号三圣街68号园一层附171-176、179~182号
蜀大侠(建设路店),104.109705,30.675478,四川省成都市成华区建设路26号
大龙燚火锅(玉林总店),104.065176,30.626467,四川省成都市武侯区二环路南三段9号
俏媳妇家庭火锅(下同仁路店),104.058473,30.671878,四川省成都市青羊区下同仁路支矶石街28号
最忆锦城酒楼,104.023169,30.699197,成都市金牛区蜀光路10号
钢管厂五区小郡肝串串香(总店),104.11223,30.663409,四川省成都市成华区双林北支路333-335号
川西坝子(清江东路直营店),104.042509,30.674364,四川省成都市青羊区清江东路8号3栋1楼46号-48号
老夏老火锅(西安南路总店),104.052937,30.671368,四川省成都市金牛区西安南路63号
吴铭火锅(新津店),103.807745,30.420216,四川省成都市新津区西顺河路金三角缤纷城2楼
大妙火锅(东郊记忆店),104.129651,30.676058,四川省成都市成华区建设南路95号
渝味晓宇火锅(金沙店),104.01314,30.685137,四川省成都市青羊区金阳路116号
大院河·仙鱼庄(琉璃旗舰店),104.106927,30.604324,四川省成都市锦江区琉三路16号附29号
御膳宫养生餐厅(总府路店),104.087758,30.662906,四川省成都市锦江区总府路1号468店
一盒相火锅,104.061364,30.530059,四川省成都市天府新区华阳街道滨河路二段363号
乡之味自贡一绝鲜锅兔(梅林店),104.136578,30.593746,四川省成都市锦江区锦江大道110号
龙森园火锅(琴台路店),104.05189,30.665066,四川省成都市青羊区琴台路60号
有拈头成都市井火锅(太古里店),104.083851,30.655482,四川省成都市锦江区龙王庙正街15-17号
漾亚·雍雅合鲜(桐梓林店),104.068955,30.619059,四川省成都市武侯区桐梓林东路1号
老码头火锅(春熙店),104.083351,30.655841,四川省成都市锦江区红星路四段51号星城银座2层
温鸭子(青龙场总店),104.111466,30.706541,四川省成都市成华区昭觉寺横路112号
码头故事(温江店),103.838628,30.695402,四川省成都市温江区柳河南路95号
醉南亚森林火锅(景观店),103.963853,30.726558,四川省成都市金牛区景观路1号
巴蜀大宅门火锅(高升桥店),104.049965,30.644597,四川省成都市武侯区高升桥东路2号罗马假日广场高盛中心1楼(出入境检验检疫局对面)
四川麻辣空间餐饮管理有限公司(万科魅力店),104.161402,30.631993,四川省成都市成华区万科路19号1栋2楼211号(凯德广场1号门对面)
老李生态鸭肠火锅总店(杨柳东路中段),103.8388,30.691053,四川省成都市温江区杨柳东路中段203号
蜀韵蜀味火锅(新都店),104.18632,30.821027,成都市新都区静安路240号
四季火锅(桐梓林店),104.068858,30.624363,四川省成都市武侯区桐梓林东路9号附2号
铜人李火锅(建设路店),104.11454,30.676434,四川省成都市成华区建设路3号
贤合庄卤味火锅(太古里店),104.087605,30.656594,四川省成都市锦江区东大街下东大街段68号
老码头火锅(骡马市店),104.07051,30.676477,成都市青羊区青龙街27号铂金·城购物广场F3
三只耳冷锅鱼火锅(玉双路店),104.098907,30.662594,四川省成都市成华区玉双路三只耳冷锅鱼25号
叁口煮酒都老火锅旗舰店,104.072196,30.615024,四川省成都市武侯区人民南路四段58号2号附6号
胡记串串香(星辉店),104.090862,30.679761,四川省成都市金牛区星辉中路3号
井口火·火锅(西南财大店),104.024287,30.679301,四川省成都市青羊区双锦路4号附9号
肖仙仙羊肉汤(三官堂总店),104.101015,30.632779,成都市锦江区三官堂街16号附60-61号(近三官堂河边)
额尔敦必福牛匠(总店),104.086153,30.670521,四川省成都市锦江区冻青树街89号
老船舫·现做鲜鱼馆(李家沱总店),104.100201,30.691214,四川省成都市成华区泰兴路36号
高记生鱼(河滨映像店),104.091843,30.627932,四川省成都市锦江区河滨路37号
不站·花胶鸡(桐梓林店),104.071234,30.62243,四川省成都市武侯区桐梓林北路6号
串门老火锅(百花潭芳邻路店),104.05036,30.660795,四川成都市青羊区芳邻路4号附36号
马帮寨故里湖畔庭院火锅(三圣乡店),104.166062,30.585373,四川省成都市锦江区三圣乡成龙大道2410号一段马帮寨火锅内
清真·牛不比火锅(交大店),104.060619,30.709701,四川省成都市金牛区群星路30号
蜀山牛油火锅专门店(紫荆店),104.056078,30.620296,四川省成都市武侯区紫杉路7号
香天下清油火锅(凯德天府天仁路店),104.075928,30.608769,成都市武侯区天仁路388号凯德天府F6
佬革命主题火锅(玉林店),104.065331,30.633327,四川省成都市武侯区玉林中路八巷9号
锦上酒楼(天泰路店),104.076903,30.597977,四川省成都市武侯区天泰路特拉克斯国际广场145号附4号
拜子笋子芋儿鸡,104.081554,30.60982,四川省成都市武侯区天仁北二街1号
味绝美蛙鱼头(太古里店),104.089426,30.662115,四川省成都市锦江区大慈寺路54号
生如夏花泰式海鲜火锅(成都伊藤洋华堂双楠店),104.027636,30.652361,四川省成都市武侯区逸都路6号伊藤洋华堂5F-003-YT
三重门传统火锅(武成大街店),104.091304,30.666335,四川省成都市锦江区武成大街200号
椒香城门口老火锅(天府长城店),104.079366,30.59837,四川省成都市武侯区天久南巷388号附202号
廖老四鲜鹅肠火锅(玉林南街店),104.06869,30.629398,四川省成都市武侯区玉林南街8号
蜀国飘香火锅酒楼(锦城万达店),104.068716,30.582772,四川省成都市武侯区锦城大道666号成都锦城万达广场F5
蜀大侠火锅(红牌楼店),104.034348,30.640286,四川省成都市武侯区佳灵路6号1楼附2号
三牦记(金沙店),104.017296,30.68276,四川省成都市青羊区金阳路11号
集渔泰式海鲜火锅(温江店),103.832439,30.691281,四川省成都市温江区南浦路西段656号
闲亭(九眼桥店),104.1037,30.645287,四川省成都市锦江区宏济新路295号
芭夯兔(长顺店),104.062849,30.671026,四川省成都市青羊区商业街284号慧德商厦2层
全福居老北京涮羊肉(华阳总店),104.055853,30.515607,四川省成都市天府新区华阳街道滨河路一段113~115号
鑫御隆斑鱼庄(金沙店),104.017162,30.683339,四川省成都市青羊区金阳路14号附201
三牦记(柏条河店),103.663871,31.003957,四川省成都市都江堰市柏条河下段2号
董记川道拐耗儿鱼(高新店),104.054023,30.564861,四川省成都市武侯区铁像寺街119号
一善菌飧云南菌子火锅(银泰城店),104.066977,30.546552,四川省成都市高新区益州大道中段1999号成都银泰城F2
拾忆味老火锅(双林路店),104.116088,30.657285,四川省成都市成华区双林中横路14号
渝大狮毛肚老火锅(体院店),104.047192,30.653578,四川省成都市武侯区一环路西一段88号附30号
7号院街火山黑鱼(杜甫草堂店),104.037622,30.675155,四川省成都市青羊区清江东路186号全季酒店1楼(杜甫草堂)
阿斯牛牛凉山菜(新会展店),104.080192,30.566061,四川省成都市武侯区世纪城路200号
恒运捞月火锅(龙泉总店),104.272164,30.564964,四川省成都市龙泉驿区驿生路27号
一叶一世界藏茶蔬食火锅(环球中心店),104.069388,30.577328,四川省成都市武侯区锦悦西路与益州大道交口环球中心北区N2-1N三楼310号
蜀皇全牛宴(太平园横一街店),104.02062,30.635692,四川省成都市武侯区太平园横一街576号二期
牛珍轩潮汕牛肉花胶鸡(新都店),104.176379,30.817365,四川省成都市新都区新园路239号2楼(新都区中医院旁)
俭让佬妈市井串串(温江总店),103.839587,30.690496,四川省成都市温江区两河路西段531号
享月·汤皇(UPARK店),104.045369,30.561463,四川省成都市武侯区富华北路666号UPARK公园B栋2楼
渝味晓宇火锅(新都店),104.187602,30.82355,四川省成都市新都区静安路65号
张记木桶鱼(华阳店),104.072783,30.511984,四川省成都市双流区二江路二段235号
泊醉山泉火锅,103.991789,30.4247,成都市双流区永安镇付家坝社区67号
雅府正红木桶鱼(莲花东路店),104.10557,30.64147,四川省成都市锦江区莲花东路39号
陈记泸州酸菜豆花火锅(建设路店),104.108613,30.67489,四川省成都市成华区建设路26号
小九里火锅(太古里店),104.092849,30.659807,成都市锦江区蜀都大道大慈寺路K·work
鱼香四季自助生态河鲜火锅(龙城国际店),103.945645,30.780648,四川省成都市郫都区高店路西段龙城国际商业街57号
一把骨(宽窄巷子总店),104.05502,30.67607,四川省成都市金牛区西安北路26号
码头故事(黄金路店),103.999504,30.715036,四川省成都市金牛区黄金东一路222号
筷子派对鲜鱼馆(少陵路店),104.030041,30.654398,四川省成都市武侯区少陵路酒吧街88号
叽嘎嘎柴火鸡,104.140786,30.68606,四川省成都市成华区二仙桥北二路13号
恬记MIX耗儿鱼(新街里店),104.062931,30.596119,四川省成都市武侯区荟锦路236号6期
猪圈小米辣(温江二店),103.834545,30.691063,四川省成都市温江区柳浪湾北二街195-196号
高记生鱼(西单商场店),104.007471,30.680937,成都市青羊区苏东坡路12号西单商场F1
味绝美蛙鱼头(圣菲店),104.007956,30.572858,双流区大件路白家段996号
有茗塘鱼馆(中和店),104.095394,30.566801,四川省成都市高新区公济桥路84号
椰妹原生态椰子鸡(成都大悦城店),104.018059,30.632152,成都市武侯区大悦路518号成都大悦城F4
蜀大狮火锅,103.987321,30.756062,四川省成都市郫都区红光大道蓝光幸福满庭耍街17栋2楼
得福火锅先生老火锅(银泰城店),104.064086,30.545686,四川省成都市武侯区吉泰六路193号
九锅一堂(银石广场购物中心店),104.086613,30.658914,四川省成都市锦江区红星路三段99号银石广场购物中心F5
九锅一堂(凯德广场新南店),104.069318,30.608198,四川省成都市武侯区盛和一路99号凯德广场F4
蜀串香厕所串串(总店),104.051512,30.64756,四川省成都市武侯区蜀汉街10号附1号
老佛爷炭火蛙锅(银泰城店),104.064573,30.546807,四川省成都市高新区益州大道中段1999号成都银泰城F1
妙厨老爹泉水蒸汽石锅鱼(江安路店),103.631949,30.990372,四川省成都市都江堰市江安中路226号
味绝美蛙鱼头(迎春路店),103.927984,30.58568,四川省成都市双流区迎春路三段42号
三牦记(玉堂店),103.616495,30.976393,四川省成都市都江堰市永康社区玉府街5栋4~7号
四千高原菌汤锅(太古里店),104.08809,30.656348,四川省成都市锦江区下东大街166号4层
蜀煌全牛宴(茶店子迎宾大道店),104.013035,30.71244,四川省成都市金牛区蜀跃路77号
三姐旺火鱼(航空港总店),103.994012,30.551964,四川省成都市双流区文星大道191号
壹骨留香地道乐山跷脚牛肉(铁像寺店),104.053897,30.564897,四川省成都市武侯区铁像寺街119号附103号
书芙蓉舒食小火锅(天虹商场奥克斯广场西区店),104.06827,30.582809,成都市武侯区锦城大道680号奥克斯广场F4
小龙串烧(华阳店),104.074293,30.533221,四川省成都市双流区华府大道一段2号附37号
老井串串香店,103.625231,31.004558,四川省成都市都江堰市井福街45号
周极品火锅冒菜(邮电学院店),104.133963,30.624918,成都市锦江区静明路17号步步高超市-1F8号
乐山王屠夫跷脚牛肉(安公路总店),104.059912,30.525476,四川省成都市双流区安公路二段356-358号
牛根香清汤黄牛肉(华阳总店),104.054494,30.521919,四川省成都市天府新区河池路戛纳湾和平路教师公寓100号
重庆老船夫冷锅鱼(新街里店),104.061256,30.598617,四川省成都市武侯区成汉中路185号负1楼
集渔·泰式海鲜火锅(仁和新城购物中心高新店),104.05986,30.59377,成都市武侯区府城大道西段505号仁和新城购物中心F4
寻小欢焖烤羊肉串(泛悦国际店),104.086287,30.618839,四川省成都市武侯区长荣路56号泛悦国际商圈3栋110-111号
韩国欧巴料理,104.015759,30.574425,四川省成都市双流区大件路白家段280号蓝光空港国际城1期1栋101号
在首尔(城南优品道广场店),103.917863,30.602861,四川省成都市双流区双楠大道白衣上街177号城南优品道广场F1
盘尚石棉烤肉(三河场店),104.148731,30.785974,四川省成都市新都区惠民一路31号
鸿诚烤肉馆,103.637147,30.986803,四川省成都市都江堰市翔凤路168号上善熙2栋附4号鸿城烤肉馆
高原烤肉(新都店),104.185594,30.830815,四川省成都市新都区龙家湾巷200号7幢5单元附15-18号
北木南烤肉和酒(石油店),104.194667,30.830195,四川省成都市新都区正因南街西九巷16-18号
西蜀人家烤全羊(华府大道二段店),104.045631,30.532433,四川省成都市天府新区华阳街道华府大道二段158号
乐山锅盖烤肉(正因南街西五巷店),104.194335,30.8288,四川省成都市新都区正因南街西五巷11号
牛小鲜炭火烤肉(青白江店),104.293759,30.890497,四川省成都市青白江区凤凰大道三段180号
老号尤兔头(幸福店),103.633931,30.998442,四川省成都市都江堰市都江堰大道14号
醉烧膘烧烤夜宵王(学府店),103.65306,31.004401,四川省成都市都江堰市学府路425-427号
何师烧烤(新都店),104.188282,30.825246,成都市新都街道静安路19号36栋1层1号
路口烧烤,103.640405,31.003328,四川省成都市都江堰市观景路451号
金都大签火盆烤肉,104.410965,30.86558,成都市金堂县赵镇滨江路二段金都华府商业3栋119号
柳飘飘亚洲烤肉集合店(都江堰店),103.663497,30.999209,四川省成都市都江堰市彩虹大道北段262号
老黄记手撕烤兔(玉林街店),104.068653,30.633131,四川省成都市武侯区玉林街26号附20号1层
田园把把烧,103.956742,31.162024,成都市彭州市蒲沟路花园一号山庄正对面
火盆烧(大丰店),104.06864,30.781542,新水碾路260号（雨禾学校斜对面）
小薇薇西昌火盆烤肉(新都九街店),104.1893,30.821464,四川省成都市新都区天香西路228号1栋1层38-46-47号
宇宙烧烤(2分店),103.956526,30.991389,四川省成都市彭州市东湖路171号
马云资格烤羊肉,104.178898,30.819903,四川省成都市新都区桂水路365号
虹口烤兔(理工店),104.159678,30.689578,四川省成都市成华区民兴路860号
老买资格烤羊肉,104.073333,30.770895,成都市新都区赵家寺路81号1层
知味棠香烤全羊总店(大丰总店),104.068561,30.775952,四川省成都市新都区仁爱路15号(大丰小学三元校区对面)
王妈手撕烤兔(玉林店),104.068392,30.632803,四川省成都武侯区玉林横街6、8、10号(近玉林菜市场)
荆都烤鱼烧烤工坊(彭州沃尔玛店),103.965723,30.991903,彭州东湖北街68号圣乔治亚广场1层
小番家成都街头烤肉(七一国际广场店),104.17812,30.828346,四川省成都市新都区金光路2号七一国际广场F4
大桔家川派烤肉(都江堰店),103.630944,30.994881,都江堰市江安路183号
乡隐别院,104.405518,30.830763,四川省成都市金堂县香利园猕猴桃采摘东100米
新疆和田好兄弟烤肉店(第二分店),103.952099,30.945641,彭州市贤清南路393号
新疆塔里木馕坑烤肉,104.416092,30.855446,四川省成都市金堂县金泉路435号
酒本日式烧肉专门店(彭州店),103.956124,30.990186,四川省成都市彭州市天彭东顺苑(东湖路)183号
滋味烧烤(育英路店),104.191314,30.818836,四川省成都市新都区清源东路108号3组10号
九田家果木烤肉(万达广场金堂店),104.423097,30.858448,四川省成都市金堂县万泰街6号万达广场4楼4010~4011号
十里香烧烤(瑞光路),104.565352,30.718249,成都市金堂县淮龙路观河庭院东北侧
发财自助烧烤,103.830698,31.165422,彭州通济镇桥楼社区2组30号
波涛园自助烧烤,103.773994,31.216703,四川省成都市彭州市太子村4组
最拽宜宾烧烤(大丰店),104.069191,30.767239,四川省成都市新都区花都大道694号
钟妹烧烤,103.766093,31.196326,四川省成都市彭州市复兴路241号
西昌藿香火盆烧烤,104.436871,30.863881,四川省成都市金堂县金西路17号
城北喻烧烤,103.640243,31.006711,四川省都江堰市观景路一段宁江大院二期564号
乐山文宫烧烤(南部新城店),103.950949,30.940085,四川省成都市彭州市清洋大街117号
蜀宴新村柴火鸡(柏水店),104.116635,30.825671,四川省成都市新都区柏水路柏水社区14社
滋味烤鱼(广福桥店),104.041023,30.646682,四川省成都市武侯区广福桥北街6号
桃哥烧烤(金堂店),104.421206,30.863366,四川省成都市金堂县金航街34号
天下独一锅石锅鱼,103.650562,30.975518,四川省成都市都江堰市翔凤路688号民主小区A3区8栋1楼
胡记大树烧烤(翔和路店),103.643364,30.986523,四川省成都市都江堰市翔和路97-101号
鹏程远界齐齐哈尔烤肉(三圣南路店),103.965697,31.001564,四川省成都市彭州市三圣南路87号
盘浦洞烤肉(彭州店),103.964281,30.992817,牡丹西路南段61号附111号1层
蜀西火焰山西昌火盆烧烤(清流),104.03347,30.946422,四川省成都市新都区新九路8号
黄劲燃烧烤,103.648281,31.002012,四川省成都市都江堰市中山北路122号
川西火焰山西昌火盆烧烤(青白江总店),104.370226,30.864525,四川省成都市青白江区S101(古城路)
西昌火盆烧烤(外北街店),103.636845,31.011464,成都市都江堰市外北街364号
乐山陈烧烤,103.975081,30.999732,四川省成都市彭州市天彭街道调路小区朝阳社区活动中心斜对面
烤迎春海鲜牛排单点式自助烤肉(金堂万达店),104.42361,30.859734,成都市金堂县万泰北街万达广场(金堂店)
鑫亿石棉烧烤(彭州总店),103.947022,30.9856,四川成都市彭州市康居巷7号
宜宾三江口烧烤,103.660928,31.001332,成都市都江堰市柏条河南路中段都江华府
新疆阿卜力孜烧烤店(彭州第二分店),103.959406,30.997104,四川省成都市彭州市天彭镇牡丹北路77号14栋1层
小胖子烧烤(通锦路店),103.642421,30.987203,通锦路70-74号
火焰烧烤(天府西路店),103.943222,30.98414,成都市彭州市天府西路绣城路南段269号院北侧约30米
桥头烧烤(江安河西滨河路店),103.634228,30.979489,成都市都江堰市江安河西滨河路安顺小区西南侧约70米
肆悦芳华民谣夜啤,103.642088,31.01877,四川省成都市都江堰市香雪海路125号
本色烧烤(金堂店),104.419196,30.877859,四川省成都市金堂县西家坝路西家坝三期629号
塔伊布昭通小肉串(总店),103.641914,31.011774,四川省成都市都江堰市银杏路33号
蒋记勇哥烧烤,104.42016,30.854273,四川省成都市金堂县金泉路287号
左记烧烤,103.651653,30.988855,四川省成都市都江堰市岷江路114号
夜不收烧烤(金隆大道店),103.879582,31.054412,成都市彭州市金隆大道隆丰街道综合大市场东侧约150米
常来聚烧烤,103.637607,31.008079,四川省成都市都江堰市蒲阳路342号
英姐烧烤,104.388892,30.91996,四川省成都市金堂县菌源街99号
船头市井烤肉火锅,104.842229,30.52502,成都市金堂县中正街金堂县土桥镇人民政府西侧约100米
塔伊布昭通小肉串(民主店),103.6515,30.974307,四川省成都市都江堰市银丰路51号
弈江南烧烤店,104.46591,30.856234,学府大道555号13栋附106
李扯火烧烤,103.956989,30.969202,成都市彭州市清白江西路顺和苑小区南门南侧约100米
荆都烤鱼(置信逸都城店),103.949572,30.939531,成都市彭州市协和大道与环湖路一段交叉口南150米置信逸都城B1
张欢烧烤(三河店),104.147597,30.787007,四川省成都市新都区惠民二路49号
高明烧烤(金华西路店),103.966834,30.999763,四川省成都市彭州市金华西路一段207号1层
奇味烤兔(玉林店),104.068534,30.632792,四川省成都市武侯区玉林横街2号
巧妹烧烤,103.916386,31.037664,成都市彭州市利人路利安幼儿园东南侧约160米
阿遇把把烧烤五花肉(幸福路店),103.626648,31.002811,四川省成都市都江堰市幸福路134号
东北老地方烧烤,103.63635,30.996714,四川省成都市都江堰市新马路202号
鼓动心怡·烧烤·烤鱼餐酒馆,103.631958,30.996091,太平街231号2楼
醉江湖烧烤大虾田螺夜啤,103.638371,30.96721,成都市都江堰市中医院北路金江小区-北区北侧约30米
胖丁熊烧烤(金堂店),104.427451,30.860463,四川省成都市金堂县万安街15-、17号
刘闲得中式自助烤肉(金堂店),104.429454,30.864077,四川省成都市金堂县万方街219号
强娃烧烤,103.880861,30.978271,成都市彭州市丽蓉大道彭州市丽春镇人民政府西南侧约90米
江湖烧烤(玉带桥街店),103.639901,31.001128,成都市都江堰市玉带桥街和睦家园东北侧
缔都烧烤(成堪院东南),103.627046,30.989975,四川省成都市都江堰市观江街43号
529烤肉,104.428528,30.873608,成都市金堂县会馆路臻稀美茵庄园
贵州臭豆腐之家特色烤肉,104.416844,30.855426,成都市金堂县金泉路水城印象
小李妹烧烤,103.993249,31.095541,四川省成都市彭州市敖红路南段33号
锦州烧烤(米家巷路店),104.425078,30.855206,米家巷路121号
绿野星辰河边烧烤区,103.78178,31.231363,成都市彭州市彭白路太阳湾风景区
灌县根根烧烤,103.637833,31.010754,四川省成都市都江堰市观景路694号
红的烧烤,104.427148,30.860373,成都市金堂县万安街一段绿岛花园
海娃冷啖杯烧烤,104.411039,30.855933,四川省成都市金堂县金鹏路金阳丽景
烤无双苕皮(都江堰上善熙店),103.636183,30.987244,成都市上善熙青城路185号附3号
签味西昌正宗火盆烧烤,103.946324,30.984515,四川省成都市彭州市天府西路74号
马烧烤,103.774076,31.033071,成都市彭州市S106成都农商银行(丰乐分理处)南侧约160米
张烧烤(金泉路店),104.419254,30.855506,成都市金堂县金泉路绿洲国际
不二烧烤旗舰店(金华东路店),103.97471,30.999711,成都市彭州市金华东路跃进苑南侧约30米
王烧烤,103.81773,30.971847,成都市彭州市长庆街庆兴中心幼儿园(长板街南段)东南侧约290米
热火朝天烧烤,103.944142,30.985858,成都市彭州市西海南街丽都苑
大钍蚝市井烧烤(彭州望蜀里店),103.951361,30.988036,四川省成都市彭州市小南街61号
乐山烧烤(善庆街店),103.694093,31.041818,四川省成都市都江堰市善庆街37号
陆陆发烧烤大排档,103.642771,31.004436,四川省成都市都江堰市蒲阳河路36号
蔡姐烧烤,104.416031,30.880104,成都市金堂县成南路蓝光·锦绣香江
刚娃子烧烤,103.97173,30.999863,成都市彭州市金华东路调露小区北侧约50米
夜生活烧烤,104.542003,30.727997,成都市金堂县赵淮路淮口五星南苑-1期西南侧约90米
木生火烧烤(彭白路店),103.919777,31.001001,成都市彭州市彭白路彭州市天彭镇白马幼儿园北侧约230米
沈氏烧烤,104.417052,30.880628,成都市金堂县成南路蓝光·锦绣香江东南门东北侧约30米
铁板烧(百伦广场店),103.640918,31.002275,四川省成都市都江堰市观景路390号
大虎烧烤,103.940469,30.990737,四川省成都市彭州市翠湖路12号
烧烤大师,104.132151,30.941791,成都市彭州市濛三南路杨湾小区东侧约240米
八点半烧烤(天马店),103.760567,30.980434,成都市都江堰市车家桥街蓓蕾幼儿园东北侧约100米
海鼎捞火锅烧烤食材超市(学府路一段店),103.643053,31.002109,四川省成都市都江堰市学府路93~95号商铺
彭小子东北烧烤,103.963223,30.997775,四川省成都市彭州市牡丹西路130号
烧烤龙虾馆,103.963224,30.997335,成都市彭州市牡丹西路德坤汀城
路边烧烤(西街店),104.041099,30.943448,成都市新都区西街清流学校(初中部)西侧约120米
朋友圈自助烧烤,103.955977,31.160399,四川省成都市彭州市葛仙山镇花园村10组8号
桥头烧烤(鑫苑街二巷店),103.686307,30.950645,成都市都江堰市鑫苑街二巷德华苑西北侧约120米
金堂第一烧,104.446916,30.857688,四川省成都市金堂县复兴街255号
小欧烧烤,103.971996,30.997069,四川省成都市彭州市牡丹北路东段调露小区
炭火匠人(都江堰店),103.63688,30.986553,四川省成都市都江堰市幸福街道翔凤桥社区翔凤路168号5栋附7号
红娃冷淡杯,104.446728,30.857822,四川省成都市金堂县复兴街265号
自助野炊烧烤,103.688491,31.133549,成都市都江堰市虹口自然保护区高原大桥桥头(虹都水岸度假酒店旁)高原河谷篷客露营
久味鲜美食坊(江西街店),103.627875,30.994091,四川省成都市都江堰市江安河西路上段90号
九尺吕氏板鸭(通济店),103.846208,31.166856,四川省成都市彭州市通济镇滨江街156号
九天民宿·中餐·烧烤·柴火鸡·住宿,103.572544,31.087784,龙池旅游路川主坪西南
in19酒馆(彭州店),103.966122,30.992338,四川省成都市彭州市东湖北街68号1层
聚点烤吧昭通特色小肉串,103.631106,30.997331,成都市都江堰市太平街水都新城西北侧约160米
疯狂铁板鱿鱼,104.466229,30.866212,成都市金堂县学府大道金堂大学城公共交通客运站
遇见宵夜,104.427209,30.860724,四川省成都市金堂县万安街一段与安康街交叉口东20米
食尚烤吧,104.641893,30.764873,四川省成都市金堂县文化街61号
街边小串(万顺街店),104.634629,30.693594,成都市金堂县万顺街高板客运站东侧
哈尔滨烤饼(复兴街店),104.445844,30.858451,四川省成都市金堂县复兴街195号
烤场,103.650875,30.962001,成都市都江堰市天府大道紫荆城-1期
眼哥铁板烧,104.814304,30.42428,成都市简阳市云西街云龙镇人民政府南侧约250米
周小烤豪情烤吧(龙锦B区店),103.941577,30.986549,四川省成都市彭州市绣城路南段159号
百味江湖(金泉路店),104.417795,30.855425,四川省成都市金堂县金泉路353号
初木·炙木烧日式烧肉(彭州望蜀里店),103.951173,30.989237,成都市彭州市小南街望蜀里5栋二楼203号
自助烧烤,104.841891,30.525367,四川省成都市金堂县永兴街157号
强哥烧烤火锅,103.628189,30.998712,成都市都江堰市江安河东路上段都江堰水文化广场
肉妹早餐(濛阳分店),104.116252,30.952643,四川省成都市彭州市兴农路91号
烤无双苕皮(彭州店),103.946916,30.990616,彭州天彭钟楼路23-4号
酒街烧肉,103.962107,30.987265,康乐路171-175号
遇见安老师龙虾馆(彭州直营店),103.966249,31.003235,四川省成都市彭州市三圣北路36号
烤无双苕皮豆干(都江堰店),103.627507,31.002244,四川省成都市都江堰市幸福路2号附19号
张亮麻辣烫(川大店),104.086561,30.628841,四川省成都市武侯区科华街1号附3号
学街秀兰麻辣烫(科华店),104.083372,30.620105,四川省成都市武侯区科华中路132号
芙蓉树下冒菜·麻辣烫(创始店),104.085114,30.669555,成都市锦江区忠烈祠东街冻青树街-29号院西南侧约30米
杨国福麻辣烫(西华大学店),103.956711,30.788159,四川省成都市郫都区隆府南巷68号附5号
张亮麻辣烫(吉瑞五路店),104.070479,30.559379,四川省成都市武侯区吉瑞五路1栋312号
莫得名字麻辣烫,104.106073,30.64205,四川省成都市锦江区莲花东路3号
老街小牛·锑锅麻辣烫(双流店),103.918802,30.571516,四川省成都市双流区电视塔路三段96号
儿时回忆麻辣烫(观音桥店),104.114229,30.624991,四川省成都市锦江区观音桥街146号
杨国福麻辣烫(川音大学店),104.183333,30.810281,四川省成都市新都区育英路561号
牛华八婆麻辣烫(东方时代商城店),104.091399,30.65414,东大街下东大街段328号东方时代商城F1
班花麻辣烫(太古里总店),104.086705,30.657703,四川省成都市锦江区东大街下东大街段41号
牛华八婆麻辣烫(孵化园店),104.067777,30.583642,四川省成都市武侯区蜀锦路322号
牛华八婆麻辣烫(万象城店),104.122908,30.649869,四川省成都市成华区双成三路华润二十四城六期钢管厂五区15号附51~52号
胎不嗦麻辣烫(橡树林总店),104.101751,30.628205,四川省成都市锦江区二环路东五段126号
雄赳赳麻辣烫(点将台店),104.100141,30.655258,四川省成都市锦江区点将台东街92号
锑锅麻辣烫(内曹家巷店),104.090686,30.680307,四川省成都市金牛区内曹家巷6号、16号
舌尖味道菜市场麻辣烫(成都总店),104.077813,30.600767,四川省成都市武侯区天顺路256号
花吃嘴儿小食堂,104.097499,30.660721,四川省成都市成华区望平街78号望平街78号院
毛线签签麻辣烫(银沙北街店),104.048836,30.705816,四川省成都市金牛区银河北街33~35号
牛华八婆麻辣烫(世纪城店),104.078579,30.557743,四川省成都市武侯区世纪城路1062号
华阳串根香麻辣涮(总店),104.067683,30.51848,四川省成都市天府新区正北中街158、160号
张亮麻辣烫(成都银泰城店),104.066135,30.547441,四川省成都市高新区益州大道中段1999号成都银泰城F1
鄢知味冒菜(华创路店),104.007677,30.525461,四川省成都市双流区华创路东一巷62号
无名眼哥麻辣烫(总店),104.03357,30.682779,四川省成都市青羊区文苑路68号附11号
三顾冒菜(银泰城店),104.067088,30.54673,四川省成都市高新区益州大道中段1999号成都银泰城F1
花吃嘴儿麻辣烫(文殊坊店),104.084563,30.675564,四川省成都市青羊区玉泉街121号
扳命兔腰麻辣烫(玉林店),104.06871,30.636118,四川省成都市武侯区玉林北巷1号
镇江龙麻辣烫(罗马假日店),104.049009,30.64289,武侯区高升桥北街罗马假日广场4栋1层
三顾冒菜(青羊宫店),104.046848,30.666278,四川省成都市青羊区一环路西二段2号
肆方鸿门·火锅串串(抚琴店),104.039902,30.677764,四川省成都市金牛区百寿路15号
七婆麻辣烫(电视塔路店),103.920776,30.574836,四川省成都市双流区电视塔路二段37-41号
饱食盘盘麻辣烫(蜀汉路店),104.030279,30.691374,四川省成都市金牛区蜀汉路208号
蜀串香厕所串串(总店),104.051512,30.64756,四川省成都市武侯区蜀汉街10号附1号
巷内麻辣烫(新时代家属院店),103.890726,30.812673,四川省成都市郫都区一环路东南段251号附5一附6号巷内
蓉城老王家·冒菜(桐梓林总店),104.063728,30.62066,四川省成都市武侯区新光路60号紫薇社区6栋
六年二班麻辣烫(人民公园店),104.059233,30.661084,四川省成都市青羊区小南街101号
老街称盘麻辣烫(欢乐颂购物中心店),104.100493,30.667762,四川省成都市成华区双林路339欢乐颂A栋一层
元通老娘子麻辣烫(崇州店),103.698456,30.629662,成都市崇州市向荣路金星幼儿园(向荣路)西南侧约100米
乐山牛华绿缘麻辣烫(新南门店),104.080811,30.648909,四川省成都市武侯区南台路8号
张叔叔锑锅麻辣烫(猛追湾直营店),104.098089,30.673306,四川省成都市锦江区东城拐下街27号附4-
卤力拼卤味火锅(建设路总店),104.110255,30.677105,四川省成都市成华区建设巷14号附15号
六年二班串串(顺和街店),104.007505,30.638434,四川省成都市武侯区顺和街8号附6号
罗眼镜串串香,103.89056,30.818587,四川省成都市郫都区包家巷25号
饮溪牛肉串串(八里庄店),104.121448,30.685651,四川省成都市成华区双建路81号附8号
三顾冒菜(瑞联西路店),103.967323,30.691559,四川省成都市青羊区瑞联西路102号文家英国小镇
朋友圈麻辣烫,103.877353,30.825673,四川省成都市郫都区蜀贤路三段338号
海椒市落舌麻辣烫冒菜(晶融汇店),104.087504,30.656731,成都市锦江区东大街下东大街段99号晶融汇B1
王氏冒菜(建业店),104.120388,30.675667,四川省成都市成华区建业路30号附17号
牛华绿缘麻辣烫(财富又一城店),104.101363,30.685791,四川省成都市成华区华油路8号附6号
乐山牛华绿缘麻辣烫(清江中路店),104.023524,30.677685,四川省成都市青羊区清江中路6号
老街称盘麻辣烫(世茂广场店),104.194439,30.586683,四川省成都市龙泉驿区世茂广场宽厚里步行街附21号
新红鸿社麻辣烫(高攀店),104.088307,30.616367,四川省成都市武侯区高攀路18号附47号
新红鸿社麻辣烫(总店),104.11757,30.677141,四川省成都市成华区二环路东二段7号招商东城国际a座
胎不嗦麻辣烫(新街里店),104.062618,30.596739,四川省成都市武侯区荟锦路243号
张三脆麻辣烫(三圣街店),104.086194,30.655372,四川省成都市锦江区三圣街13号
巷巷头的麻辣烫(总店),104.047694,30.644598,四川省成都市武侯区高华二街41号1层
三顾冒菜(蛟龙店),103.918146,30.610798,四川省成都市双流区蛟龙大道海滨广场3座旁
南街杨记,103.682461,30.632584,四川省成都市崇州市小东街139号
惠姐砂锅麻辣烫(金桔巷总店),103.644086,31.001569,四川省成都市都江堰市金桔巷24号28号
渔哥串串香,104.135467,30.667892,四川省成都市成华区横一街62号
老周冷锅串串(永盛南街店),104.03352,30.644259,四川省成都市武侯区永盛南街7号
落舌冒菜(海椒市街店),104.108467,30.644487,四川省成都市锦江区海椒市街10号附1号
老街称盘麻辣烫(滨江和城店),104.090857,30.495388,万东路80号滨江和城二期2008号
三顾冒菜(彭州店),103.953654,30.989802,四川省成都市彭州市东大街180号
三顾冒菜(龙泉店),104.272712,30.562272,四川省成都市龙泉驿区驿生路156号
川魂帽牌货冒菜(红牌楼店),104.035123,30.642487,四川省成都市武侯区永盛南街10号
三顾冒菜(景德店),103.891387,30.81577,四川省成都市郫都区郫筒镇西大街景德巷33号1层
六年二班麻辣烫(贝森店),104.007234,30.675612,四川省成都市青羊区贝森路95号1层
川魂帽牌货冒菜(抚琴街南二巷),104.046751,30.683469,四川省成都市金牛区抚琴北二巷4号1栋附1号
幺妹串串香(万兴街总店),104.128144,30.658416,四川省成都市成华区万兴街6号附7~8号
三顾冒菜(金牛万达店),104.081515,30.694696,四川省成都市金牛区肖家村二巷89号
斗起来串串(吉祥店),104.059883,30.675335,四川省成都市青羊区吉祥街33号
鸿社麻辣烫(玛塞城店),104.10965,30.689544,四川省成都市成华区府青路二段101号
刘姐冷锅串串香(石灵上街店),104.190672,30.656416,四川省成都市龙泉驿区十陵上街34号
三顾冒菜(龙湖时代天街店),103.925788,30.758518,四川省成都市郫都区合作路56号龙湖时代天街2期17栋119室
口口香串串(新鸿南支路店),104.115995,30.665628,四川省成都市成华区新鸿南路77号新华社区33栋
三顾冒菜(丽景店),104.058998,30.536083,成都市双流区天府新区华阳街道丽景路409号
三国冒菜冒鸭子(双桥店),104.106604,30.65913,四川省成都市成华区双桥路274号附12号
鸿社串串麻辣烫,104.06487,30.631963,四川省成都市武侯区玉林中路37号
老口味冒菜(经天西路店),104.111358,30.609047,四川省成都市锦江区经天路5号附38号
何姐卤菜冒菜,104.0652,30.668323,四川省成都市青羊区桂花巷51号
三顾冒菜(红楠广场店),104.02628,30.641725,四川省成都市武侯区红牌楼二街132号
醉貂蝉冒菜(瑞南街店),104.006521,30.670722,四川省成都市青羊区瑞南街161号
三顾冒菜(荆翠中路店),104.112877,30.722148,四川省成都市成华区荆翠中路322号
幸香聚冒菜(川大店),104.089402,30.631582,四川省成都市武侯区郭家桥北街4号附1号
三顾冒菜(清江西路店),104.00408,30.682683,四川省成都市青羊区清江西路87号2栋1单元1层(工商银行)
三顾冒菜(龙潭华冠路店),104.177921,30.703098,四川省成都市成华区华冠路4号秀林苑西区附四号附13号
厕所串串(桂王桥北街店),104.090299,30.669385,四川省成都市锦江区桂王桥北街4号
匠岳王宝器麻椒鱼(全国总店),104.009124,30.647487,四川省成都市武侯区晋吉北路112号(彩虹桥幼儿园对面)
盘子串串香(银沙北街店),104.049205,30.703174,四川省成都市金牛区银沙北街51号
冒牌火锅菜(双栅子街店),104.088343,30.666697,四川省成都市锦江区双栅子街11号
杜哥手提串串,104.111964,30.659935,四川省成都市成华区双林路196号71栋旁
老成都手提式串串香(中胜路内江店),104.102008,30.559989,四川省成都市双流区中胜路10号
蜀烩冒菜(建设南路店),104.130295,30.676611,四川省成都市成华区建设南路120号
李记冒菜馆(土门新村店),104.118421,30.751318,土门村四组235号附3号
秦妈串串(白家店),104.011644,30.554347,四川省成都市双流区川大南路一段216号
三顾冒菜(万景峰店),103.938061,30.780672,四川省成都市郫都区尚雅路2期9栋2901室
厕所串串香(西门店),104.028403,30.682995,四川省成都市青羊区清溪南街15号
老黄记不二冒菜(科园二路店),104.043306,30.630683,四川省成都市武侯区科园二路41号附1号
袁记幺哥串串香(北湖店),104.17331,30.722472,成都市成华区熊猫大道北湖印象2期56号商铺
刘姐极品串串(兴蓉南街店),104.051817,30.640271,四川省成都市武侯区兴蓉南街3号
六年二班串串(犀浦校区),103.994864,30.757128,四川省成都市郫都区龙吟路390-392号
三顾冒菜(点将台店),104.097241,30.655828,成都市锦江区点将台街63号骨科医院(近牛王庙望平街)
西川红太阳串串香总店(江安路店),103.626882,30.994193,四川省成都市都江堰市江安路32-36号
大凉山自助烤肉和火锅串串(家乐福店),103.526998,30.582652,四川省成都市大邑县温泉路207号
卿掌柜厕所串串(宽窄巷子总店),104.059985,30.668349,四川省成都市青羊区西胜街7号附11号卿掌柜厕所串串总店宽窄巷子景区少城小学旁窄巷子内100米
三顾冒菜(新乐店),104.045354,30.614848,四川省成都市武侯区新乐中街280号1栋1层110号
川魂帽牌货冒菜(菱安路店),104.12318,30.615961,四川省成都市锦江区菱安路266号华润幸福里二期6栋102室
川魂帽牌货冒菜(温江店),103.860849,30.692273,四川省成都市温江区永兴路35号
轩辕派上古冒菜,104.103783,30.712753,四川省成都市成华区羊子山西路70号
三顾冒菜(龙城大道店),104.202626,30.578332,四川省成都市龙泉驿区龙城大道保利玫瑰花语482号
老黄冒菜(兴蓉南街店),104.0508,30.640758,四川省成都市高新区兴蓉南街63号
蔡菜鲜卤(龙平路店),104.263434,30.581645,四川省成都市龙泉驿区龙泉街道怡和新城A3区11栋265号
鸡汤冒菜,104.113,30.645893,四川省成都市锦江区二环路东四段36号附5号
乐山大众串串香(双流机场店),103.996225,30.583868,四川省成都市双流区长江路三段21号附10号
卤骨冒菜馆(新会展店),104.078557,30.556869,四川省成都市武侯区天华路9号
三顾冒菜(铂金城店),104.070982,30.676832,四川省成都市青羊区青龙街27号1栋1层62号
味一家手提串串(光明巷店),104.081122,30.670307,四川省成都市青羊区光明巷16号附2号
三顾冒菜(双流空港晶座店),104.002681,30.576103,四川省成都市双流区临港路3段空港晶座3楼
极品冒菜no.1(天彭镇广场店),103.944075,30.99222,四川省成都市彭州市广场西路118号
三顾冒菜(逸景苑分店),103.948681,30.939737,四川省成都市彭州市致和镇清洋大街56号9栋1单元2号
板命兔腰麻辣烫(紫竹西街店),104.058903,30.623126,四川省成都市武侯区紫竹西街80号
回味冒菜(罗家碾店),104.029029,30.679841,四川省成都市青羊区罗家碾街1576号
魏道冒菜(天宝西街店),103.865314,30.694386,四川成都市温江区光华大道三段245号
三顾冒菜(第五城店),103.934264,30.635218,四川省成都市双流区康家堰路二段157号
飘味香骨汤冒菜,104.428953,30.86173,四川省成都市金堂县万方街108号
知味冒菜,104.096331,30.679955,成都市金牛区马鞍东路恒大曹家巷广场-东区
川骄冒来香冒菜(玉泉店),104.086154,30.674866,成都市青羊区玉泉街正成香域南侧
三顾冒菜(檬柏路店),103.939165,30.797956,四川省成都市郫都区港通北一路277号
三顾冒菜(合能锦城店),104.148819,30.601482,成都市锦江区锦江大道889号2栋1单元2楼234号
兄弟冒菜(柳翠路店),104.099571,30.610659,四川省成都市锦江区琉璃一街柳翠路64号
灌县老妈砂锅串串香(高新西区店),103.93273,30.748927,四川省成都市郫都区西源大道1171号
晋记冷锅串串,104.422995,30.863622,四川省成都市金堂县顺安街54号
懒的爽冒菜(顺江店),103.932203,30.747692,四川省成都市郫都区清源北巷107号
川魂帽牌货冒菜(创业北街店),104.275551,30.571962,四川省成都市龙泉驿区永安路417号
辣翻天冒菜卤菜,104.04125,30.641587,四川省成都市武侯区红牌楼北街15号附9号
郭氏冒菜(黄河路店),104.196921,30.821209,四川省成都市新都区黄河路12-1-1号
宽房窄铺烤肉,104.041993,30.684588,四川省成都市金牛区金琴路91号
三顾冒菜(东方天地店),104.136668,30.667626,四川省成都市成华区杉板桥南五路348号
姐妹串串(大源西街店),104.039412,30.561997,四川省成都市武侯区大源西街82号
老阿婆集市火锅(大丰店),104.075933,30.778099,四川省成都市新都区敬成路501号
实惠串串香(为民路店),104.051748,30.696075,四川省成都市金牛区为民路109号
三顾冒菜(龙湖北城天街店),104.071053,30.715947,成都市金牛区五块石路1号龙湖北城天街购物中心F1
刘幺妹砂锅冒菜(东大街店),103.950801,30.98926,四川省成都市彭州市东大街24号4栋附106号
金三顾骨汤冒菜(金鹏店),104.012084,30.682568,四川省成都市青羊区金鹏街22号
眼镜冒菜馆(川湘路店),103.626511,30.517795,四川省成都市大邑县川湘路25号
陈记厕所串串(双荆路店),104.102666,30.712781,四川省成都市成华区羊子山西路103号鲜果园旁
金三顾冒菜(牧电路店),104.038905,30.67161,四川省成都市青羊区牧电路13号附23号
苏黄记冒菜(宽窄巷子店),104.065379,30.669107,四川省成都市青羊区仁厚街18号附4号
杨御厨冒菜王(龙港路店),104.174636,30.705163,四川省成都市成华区龙港路36号3号楼10号