name,lng,lat,address
书亦烧仙草(熊猫大道店),104.122324,30.728024,四川省成都市成华区将军碑东二路88号3栋107号
茶百道(财富又一城店),104.099516,30.683976,四川省成都市成华区前锋路1号附17号
书亦烧仙草(新华公园店),104.113467,30.663224,成都市成华区双林北支路105号附14号
书亦烧仙草(金堂华地财富广场店),104.405954,30.867049,四川省成都市金堂县金园街120号
蜜雪冰城(洛带古镇店),104.333343,30.643605,四川省成都市龙泉驿区下街194号
书亦烧仙草(成都东站店),104.149135,30.6352,四川省成都市成华区成都东站候车厅jd01号
书亦烧仙草(福地广场店),104.0737,30.766627,成都市新都区大丰镇大天路489号福地广场F1
书亦烧仙草(大润发店),103.65098,30.993819,四川省成都市都江堰市莲花南路1号大润发(都江堰店)F1
纳川咖啡奶茶原料工厂店,104.053864,30.700932,四川省成都市金牛区二环路北一段53号附6号
喜茶(SM广场店),104.118218,30.675445,成都市成华区二环路东二段29号SM广场F1层
书亦烧仙草(万达广场店),104.423638,30.859675,四川省成都市金堂县万泰街6号万达广场F4
丸摩堂鲜果茶(东郊记忆店),104.131832,30.675711,四川省成都市成华区圣灯路217号
优可奶茶(蛟龙港店),103.917519,30.621638,四川省成都市双流区高新大道37号
鑫成奶茶店,104.843908,30.523804,四川省成都市金堂县南华街80号
偶遇奶茶酷饮,103.960143,30.501754,四川省成都市双流区新居街150号
即刻唤醒咖啡,104.070112,30.641411,四川省成都市武侯区金陵横路77号
布丁奶茶屋,103.987024,30.412966,成都市双流区剑南大道南段翰林苑西侧约270米
三巷甜品饮品(川音店),104.18622,30.808697,四川省成都市新都区川音三巷162号
悦享奶茶,104.265772,30.580786,四川省成都市龙泉驿区双龙路488号8栋
都可茶饮(龙厢街店),104.128763,30.715824,四川成都市成华区龙厢街299号
叶小姐的奶茶铺和卤菜摊(华彩路店),104.181341,30.70105,四川省成都市成华区华彩路16号
KOI(成都悠方购物中心店),104.064212,30.589046,成都市武侯区高新区交子大道300号悠方购物中心B1层B100号商铺
一只酸奶牛(凯德来福士店),104.073996,30.637639,成都市武侯区人民南路四段3号成都来福士广场B2
辰惜奶茶店,103.985618,30.613973,成都市武侯区七里路505号
一杯奶茶,104.118162,30.705082,成华区青铁家园南1门旁
1 奶茶,104.044321,30.682673,四川省成都市金牛区抚琴西南路10号附15号
拾玖奶茶坊,103.818823,30.6979,四川省成都市温江区德全横街49号
YOYO奶茶,103.996636,30.555227,成都市双流区长城路二段金色校园广场
圆真真手作嚼感鲜茶(太古里店),104.087583,30.658062,四川省成都市锦江区南纱帽街57号
每粥奶茶店,104.094921,30.560844,四川省成都市双流区新兴街70
茶丸家彩虹弹珠奶茶(中国铁建186mall店),104.149014,30.686526,四川省成都市成华区东华一路47号中国铁建186mallF1
七港九饮品店(南兴巷店),103.889742,30.81,四川省成都市郫都区南兴巷127号
半岛奶茶店,104.122276,30.960749,四川省成都市彭州市妙景街5-7号
老地方奶茶,104.297302,30.689824,四川省成都市龙泉驿区育才街62号
兵之王(濛江东路店),104.121165,30.961249,四川省成都市彭州市濛江东路23号
逅逸奶茶,103.964868,30.643919,四川省成都市武侯区金兴北路307号
娇娇奶茶,103.734345,30.588503,成都市崇州市画江大道名阑商务酒店南侧约100米
巴菲奶茶,104.55843,30.407014,四川省成都市简阳市沱三桥东十字路口一期还房门市37号(近河东区简阳中学)
刚刚好奶茶,103.871712,30.816448,四川省成都市郫都区郫花路299号18栋10号
DADA奶茶,104.078045,30.654806,四川省成都市锦江区东府街36号
一点甜奶茶,103.992387,31.09378,成都市彭州市楠桥村2组35号
兵之王(兴城大道店),104.153167,30.804154,四川省成都市新都区兴城大道755号
新资源咖啡奶茶原料专营店(成都分公司),104.028057,30.755896,四川省成都市郫都区清逸路2栋25号
海伦奶茶店,104.165414,30.820058,成都市新都区电子路海伦广场388号
奶茶之恋,103.886045,30.53372,四川省成都市双流区指南针职业技术学校旁
丸摩堂鲜果茶(新城市广场店),104.063862,30.680516,四川省成都市青羊区西大街1号新城市广场F1
鲜奶奶茶,103.970185,30.698171,成都市青羊区纬八路成都成飞宾馆
一只酸奶牛(新城市广场店),104.063799,30.680439,四川省成都市青羊区西大街1号新城市广场F1
悦茶奶茶,103.984356,30.752491,成都市郫都区犀浦街道两河西路103号4栋1层15号
壹拾广奶茶铺,103.660576,30.982238,四川省成都市都江堰市永丰路91号
么么哒奶茶,104.011596,30.702888,四川省成都市青羊区龙嘴路224号
一只酸奶牛(幸福路店),103.625416,31.003448,成都市都江堰市幸福路中段2号附43号
三杯奶茶,104.586764,30.334689,成都市简阳市新达街吴仲良第四初级中学北侧约60米
熊猫奶茶,104.152541,30.740834,白莲池街道大熊猫繁育研究基地内
骇兔奶茶,104.545649,30.435342,简阳市水金路与雄州大道北段交叉路口往东约240米
小屋奶茶,103.699723,30.610715,四川省成都市崇州市兴安南路18号
盛和奶茶,104.55282,30.394545,利民街52号
肥肥奶茶,104.128897,30.770864,四川省成都市新都区蓉都大道天河路1341号
青橘奶茶屋,104.159081,30.833733,四川省成都市新都区如意大道43号
YOYO奶茶,104.557531,30.396706,简阳市南街香港城1号公寓1层1-14号
沁一些奶茶,104.04013,30.650823,四川省成都市武侯区双元街29号
微笑奶茶店,104.547877,30.38939,成都市简阳市广场路阳晨新世界-F区北侧约50米
鲜花素奶茶,103.942035,30.601147,成都市双流区楠园街景茂名都东郡
香炸炸奶茶店,104.254052,30.8883,青白江区红阳教育街230号附75号1层
心语路奶茶,103.788636,30.594257,成都市崇州市唐兴中街崇州市江源中学东南侧约140米
奶茶小站,104.120283,30.546049,成都市双流区新华路东华育才学校西南侧约50米
奶茶烧烤,103.976169,30.625293,成都市武侯区凤鸣路童心幼儿园西南侧约280米
吸喵奶茶店,103.966794,30.76286,四川省成都市郫都区泰山三巷72号
来一杯奶茶,103.619143,30.51776,成都市大邑县天福街大邑民仁医院东南侧约150米
小酒馆奶茶,104.264125,30.83243,成都市青白江区同心大道四川建筑职业技术学院(成都校区)
趣乐哆奶茶店,103.893219,30.811944,成都市郫都区江西巷星光大道B区
冰淇淋奶茶,104.057162,30.66546,四川省成都市青羊区包家巷82号附40号
YOYO奶茶,104.365173,30.440145,成都市简阳市中心西路简阳市贾家街道人民政府
茶遇手工奶茶,104.3591,30.828878,四川成都市青白江区八达路97号
好好奶茶,103.877226,30.710814,成都市温江区天乡路一段惠民东苑-东区
茶小恋奶茶,104.153619,30.634977,成都市成华区嘉陵江路爱馨公寓(成都火车东站店)
一杯鲜奶茶,104.121716,30.686716,四川省成都市成华区桃林街36号
朋友圈奶茶,104.698147,30.598153,成都市简阳市Y142简阳农商银行寨子分理处北侧约210米
板栗奶茶,104.116548,30.680786,四川省成都市成华区建设北路三段6号龙湖天街三千集b1
娟娟奶茶,103.422395,30.339634,成都市邛崃市宇龙街卧龙中心幼儿园西南侧约250米
心怡奶茶,103.952308,30.773638,四川省成都市郫都区学府南路66号
菲凌奶茶,104.216608,30.743261,成都市新都区文化西街七彩童年幼儿园(长林街三巷)东侧约120米
莉雪奶茶店,104.402968,30.753418,成都市青白江区云石路雲顶大酒店东南侧约210米
忘忧奶茶店,104.559068,30.410118,成都市简阳市尽春意大道简阳中学(河东校区)东北侧约30米
怡馨奶茶,104.297284,30.689643,四川省成都市龙泉驿区育才街54号
美味奶茶,103.813569,30.431144,成都市新津区兴园五路欧郡东北侧约30米
爱乐奶茶,104.606811,30.694295,四川省成都市金堂县规划三路66号
沫沏奶茶店,103.756874,30.984755,四川省成都市都江堰市金堰路288-300号
鹿生奶茶,103.933594,30.674848,光华大道二段601号附96
BLUE奶茶店,104.058876,30.769324,四川省成都市新都区新街85号
小施妹奶茶店,104.818334,30.348885,成都市简阳市八角庙北街施家镇中心幼儿园西侧约220米
嘿糖糖奶茶,104.339109,30.642928,成都市龙泉驿区花市坝18号
壹壹奶茶,104.289733,30.778931,四川省成都市青白江区裕康街83号
遇见奶茶屋,104.266617,30.658432,永丰家园旁边永丰小学197号
茶遇奶茶,103.5647,30.231052,蒲江县天华政府街天华幼儿园西北侧约130米
一杯奶茶,104.46892,30.189819,四川省成都市简阳市顺河街与望水林场专用公路交叉口东南520米
桃桃奶茶,104.786911,30.693705,成都市金堂县桂龙街转龙乡初中西侧约240米
小曼虎奶茶店,103.995108,30.613539,成都市武侯区金履三路中海锦城·悦林湾
诗悦奶茶,103.813225,30.431869,四川省成都市新津区兴园五路c区166号附113号
优可奶茶,104.426031,30.928159,成都市金堂县三益桥街官仓白马中心幼儿园东北侧约30米
奶茶言,103.881771,30.832195,成都市郫都区蜀贤路三段中铁·奥维尔-一期北侧约90米
九月雪奶茶店,104.15353,30.813475,四川省成都市新都区新都街道工业大道西段67号1栋附202号
小院奶茶,103.262711,30.562116,四川省成都市大邑县武城街70号
茶韵奶茶,104.699147,30.6686,成都市金堂县金乐路喜洋洋幼儿园(黄桷桠分园)东北侧约180米
悠悠奶茶屋,104.647766,30.43544,成都市简阳市柴市下街四川农信简阳农商银行(平武分理处)东侧约130米
烧烤奶茶,103.973008,30.81703,成都市郫都区蜀源大道永定村八组-100号院
恬茶奶茶店,103.75704,30.40082,四川省成都市新津区安西街103号附1号
茶简奶茶,103.76302,30.862576,成都市郫都区郫花路花园农贸市场
时一奶茶,104.064102,30.51875,四川省成都市双流区富民路一段263号
忆念奶茶,104.606615,30.281954,简阳市广成线长鸿幼儿园东南侧约270米
奶茶冰粉,103.433399,30.54086,成都市大邑县清源街新场镇
沫沫奶茶,103.699066,30.637779,四川省成都市崇州市唐人街二段50号
小特家奶茶,104.081331,30.512053,成都市双流区悦和二街中德·英伦城邦-K区
茶香御奶茶,104.061663,30.382518,成都市双流区刘煎路煎茶中学西南侧约30米
素允奶茶店,104.066091,30.758667,四川省成都市新都区南丰大道135号
现捞&奶茶,103.834217,30.820548,四川省成都市郫都区释迦桥上街59号
奶茶的家,104.2806,30.562343,四川省成都市龙泉驿区酱园街13号
奶茶e族,103.996397,31.098215,四川省成都市彭州市敖平镇炭市巷7号
美美奶茶店,103.593779,30.791503,成都市崇州市育人街上元卫生院东侧约130米
倩妹奶茶店,103.99573,30.618782,成都市武侯区铁佛路7天酒店(簇桥店)南侧约40米
拾光奶茶,103.975632,30.627849,成都市武侯区凤翔路红苹果幼儿园东南侧约150米
一杯奶茶,103.989931,30.820241,四川省成都市郫都区千禧街与上河街交叉口东南200米
爱意奶茶,103.884736,30.90561,成都市郫都区唐太路四川省经济管理学校东侧约70米
相遇奶茶屋,103.95155,31.021664,彭州牡丹大道北三段674-684号附近
江小茶奶茶,103.816379,30.867074,成都市郫都区G213(成那线)绿城·川菜小镇美食街
遇见奶茶吧,103.945224,31.094113,四川省成都市彭州市楠杨社区东街33号
小二家奶茶店,103.653386,30.852646,四川省成都市都江堰市商业街31号
Hello奶茶,104.423519,30.48569,成都市简阳市中心街石盘街道初级中学西侧约110米
一加奶茶,103.959038,30.682301,四川成都市青羊区光华北七路208号
7港9奶茶店,103.825477,30.415875,四川省成都市新津区武阳南路47号附6号
叁茶奶茶店,104.181708,30.83262,四川省成都市新都区钟楼职业制造技术学校门口旁金都中学门口
茶肆奶茶,103.934162,30.512019,牧华路一段辅路空港花田
猫爪午后奶茶,103.93378,30.612161,四川省成都市双流区星空路三段星荟天地-二期西侧约100米
旭多多奶茶,103.926298,30.583373,四川省成都市双流区花月东街54号
CC奶茶屋,103.68827,30.308355,成都市邛崃市龙跃路回龙镇中心小学西南侧约250米
喝奶茶,104.008259,30.527922,成都市双流区泰华路与双华路三段交叉口北约160米
佳1度奶茶店,104.067711,30.82018,四川省成都市新都区复兴街131号
好时光奶茶,103.82654,30.416264,新津区武阳南路11号
茶亦茶奶茶,104.384808,30.282357,成都市简阳市新街四川简阳农村商业银行股份有限公司福田分理处东北侧
网吧台球奶茶,104.015676,30.574598,成都市双流区顺风路蓝光空港国际城-一期
青回奶茶店,104.552978,30.415538,成都市简阳市东升路诚卓·园中苑B区
相约奶茶店,104.384843,30.283075,四川省成都市简阳市福星街6870号
避风堂奶茶,103.631707,30.739271,成都市崇州市元通古镇文化街48号
虹之约奶茶,104.290954,30.888033,四川省成都市青白江区凤祥大道1266号蝴蝶洲三期1316号
香蜜奶茶,104.014327,30.551758,成都市双流区文化街百家苑二期西北侧约40米
喔喔奶茶,103.939593,30.594255,四川省成都市双流区商学街38号
快乐奶茶店,104.009666,30.727031,成都市金牛区金科西路东原亲亲里
香达克汉堡奶茶(花牌坊店),104.056491,30.684334,四川省成都市金牛区交通巷花牌坊36号附5号
奶茶,104.565056,30.720135,四川省成都市金堂县鲤鱼桥街114号
汉堡奶茶,104.074134,30.778559,成都市新都区赵家寺路圣采泊尚-西区